NORAD_CAT_ID,OBJECT_NAME,OBJECT_TYPE,EPOCH,MEAN_MOTION,ECCENTRICITY,INCLINATION,RA_OF_ASC_NODE,ARG_OF_PERICENTER,MEAN_ANOMALY,BSTAR,MEAN_MOTION_DOT,MEAN_MOTION_DDOT,TLE_LINE0,TLE_LINE1,TLE_LINE2,SEMIMAJOR_AXIS,PERIOD,APOGEE,PERIGEE,DECAYED
52106.0,STARLINK-3670,PAYLOAD,2023-11-19 12:50:04,15.08840766,0.0001708,53.2172,265.2115,91.0685,269.0502,0.0001425,1.981e-05,0.0,0 STARLINK-3670,1 52106U 22029U   23323.53477585  .00001981  00000-0  14250-3 0  9990,2 52106  53.2172 265.2115 0001708  91.0685 269.0502 15.08840766 93666,6917.878,95.438,540.925,538.561,0.0
52106.0,STARLINK-3670,PAYLOAD,2023-11-19 20:47:00,15.08838799,0.0001834,53.2175,263.7268,102.5743,257.5454,9.1816e-05,1.173e-05,0.0,0 STARLINK-3670,1 52106U 22029U   23323.86597780  .00001173  00000-0  91816-4 0  9993,2 52106  53.2175 263.7268 0001834 102.5743 257.5454 15.08838799 93711,6917.884,95.438,541.018,538.48,0.0
52106.0,STARLINK-3670,PAYLOAD,2023-11-20 01:33:09,15.08840093,0.0001881,53.2178,262.835,108.8023,251.3173,9.3934e-05,1.207e-05,0.0,0 STARLINK-3670,1 52106U 22029U   23324.06469638  .00001207  00000-0  93934-4 0  9997,2 52106  53.2178 262.8350 0001881 108.8023 251.3173 15.08840093 93741,6917.88,95.438,541.046,538.444,0.0
52106.0,STARLINK-3670,PAYLOAD,2023-11-20 06:19:18,15.08844083,0.0001928,53.218,261.9415,109.5481,250.572,0.00010529,1.388e-05,0.0,0 STARLINK-3670,1 52106U 22029U   23324.26341377  .00001388  00000-0  10529-3 0  9996,2 52106  53.2180 261.9415 0001928 109.5481 250.5720 15.08844083 93779,6917.868,95.437,541.067,538.399,0.0
52106.0,STARLINK-3670,PAYLOAD,2023-11-21 02:59:20,15.08843771,0.0001525,53.2163,258.0757,94.1969,265.9198,-1.4839e-05,-5.24e-06,0.0,0 STARLINK-3670,1 52106U 22029U   23325.12453738 -.00000524  00000-0 -14839-4 0  9999,2 52106  53.2163 258.0757 0001525  94.1969 265.9198 15.08843771 93906,6917.869,95.437,540.789,538.679,0.0
52106.0,STARLINK-3670,PAYLOAD,2023-11-21 04:34:43,15.08845153,0.000154,53.2166,257.7782,93.2185,266.8983,1.9132e-06,-2.58e-06,0.0,0 STARLINK-3670,1 52106U 22029U   23325.19077659 -.00000258  00000-0  19132-5 0  9995,2 52106  53.2166 257.7782 0001540  93.2185 266.8983 15.08845153 93919,6917.865,95.437,540.795,538.664,0.0
52106.0,STARLINK-3670,PAYLOAD,2023-11-22 04:25:30,15.08847808,0.0001699,53.2181,253.3182,90.4672,269.6515,0.00011974,1.619e-05,0.0,0 STARLINK-3670,1 52106U 22029U   23326.18437511  .00001619  00000-0  11974-3 0  9997,2 52106  53.2181 253.3182 0001699  90.4672 269.6515 15.08847808 94065,6917.857,95.437,540.897,538.546,0.0
52106.0,STARLINK-3670,PAYLOAD,2023-11-23 02:40:53,15.08851009,0.0002078,53.2174,249.1532,66.3838,293.7372,0.00030256,4.532e-05,0.0,0 STARLINK-3670,1 52106U 22029U   23327.11173545  .00004532  00000-0  30256-3 0  9996,2 52106  53.2174 249.1532 0002078  66.3838 293.7372 15.08851009 94200,6917.847,95.437,541.149,538.274,0.0
52106.0,STARLINK-3670,PAYLOAD,2023-11-23 18:34:45,15.08837737,0.0001446,53.2159,246.1869,99.8301,260.2854,-7.0676e-05,-1.413e-05,0.0,0 STARLINK-3670,1 52106U 22029U   23327.77414048 -.00001413  00000-0 -70676-4 0  9992,2 52106  53.2159 246.1869 0001446  99.8301 260.2854 15.08837737 94304,6917.887,95.438,540.753,538.752,0.0
52106.0,STARLINK-3670,PAYLOAD,2023-11-24 00:56:18,15.08828615,0.0001426,53.2148,244.994,102.5743,257.5409,-0.00020211,-3.502e-05,0.0,0 STARLINK-3670,1 52106U 22029U   23328.03910546 -.00003502  00000-0 -20211-3 0  9996,2 52106  53.2148 244.9940 0001426 102.5743 257.5409 15.08828615 94342,6917.915,95.438,540.767,538.794,0.0
52106.0,STARLINK-3670,PAYLOAD,2023-11-24 04:07:04,15.08834314,0.0001991,53.2157,244.3955,127.1864,232.931,-0.00010997,-2.038e-05,0.0,0 STARLINK-3670,1 52106U 22029U   23328.17158351 -.00002038  00000-0 -10997-3 0  9992,2 52106  53.2157 244.3955 0001991 127.1864 232.9310 15.08834314 94369,6917.898,95.438,541.14,538.385,0.0
52106.0,STARLINK-3670,PAYLOAD,2023-11-24 21:36:19,15.08837668,0.0001617,53.2168,241.1239,101.8001,258.3172,-0.00010797,-2.006e-05,0.0,0 STARLINK-3670,1 52106U 22029U   23328.90022549 -.00002006  00000-0 -10797-3 0  9995,2 52106  53.2168 241.1239 0001617 101.8001 258.3172 15.08837668 94473,6917.888,95.438,540.871,538.634,0.0
52106.0,STARLINK-3670,PAYLOAD,2023-11-25 00:47:05,15.08841776,0.0001755,53.2175,240.5305,88.3183,271.8011,-1.5892e-05,-5.41e-06,0.0,0 STARLINK-3670,1 52106U 22029U   23329.03270504 -.00000541  00000-0 -15892-4 0  9990,2 52106  53.2175 240.5305 0001755  88.3183 271.8011 15.08841776 94490,6917.875,95.437,540.954,538.526,0.0
52106.0,STARLINK-3670,PAYLOAD,2023-11-25 03:57:51,15.08847508,0.0001828,53.217,239.9338,99.7066,260.4132,0.00010079,1.317e-05,0.0,0 STARLINK-3670,1 52106U 22029U   23329.16518177  .00001317  00000-0  10079-3 0  9996,2 52106  53.2170 239.9338 0001828  99.7066 260.4132 15.08847508 94510,6917.857,95.437,540.987,538.458,0.0
52106.0,STARLINK-3670,PAYLOAD,2023-11-25 21:27:06,15.08844468,0.0001718,53.2153,236.6625,113.0229,247.0944,0.00057928,8.944e-05,0.0,0 STARLINK-3670,1 52106U 22029U   23329.89382501  .00008944  00000-0  57928-3 0  9993,2 52106  53.2153 236.6625 0001718 113.0229 247.0944 15.08844468 94629,6917.867,95.437,540.92,538.543,0.0
52106.0,STARLINK-3670,PAYLOAD,2023-11-26 00:37:51,15.08868905,0.0001705,53.2152,236.0697,118.4451,241.6713,0.00072267,0.00011241,0.0,0 STARLINK-3670,1 52106U 22029U   23330.02629291  .00011241  00000-0  72267-3 0  9997,2 52106  53.2152 236.0697 0001705 118.4451 241.6713 15.08868905 94641,6917.792,95.436,540.837,538.478,0.0
52106.0,STARLINK-3670,PAYLOAD,2023-11-26 03:48:37,15.08874009,0.0001667,53.2159,235.473,113.5929,246.5238,0.00075257,0.00011721,0.0,0 STARLINK-3670,1 52106U 22029U   23330.15877183  .00011721  00000-0  75257-3 0  9991,2 52106  53.2159 235.4730 0001667 113.5929 246.5238 15.08874009 94662,6917.776,95.435,540.795,538.488,0.0
52106.0,STARLINK-3670,PAYLOAD,2023-11-26 18:07:07,15.08826332,0.0001399,53.2159,232.7961,125.8923,234.2199,-0.00033848,-5.669e-05,0.0,0 STARLINK-3670,1 52106U 22029U   23330.75494785 -.00005669  00000-0 -33848-3 0  9996,2 52106  53.2159 232.7961 0001399 125.8923 234.2199 15.08826332 94756,6917.922,95.438,540.755,538.819,0.0
52106.0,STARLINK-3670,PAYLOAD,2023-11-26 21:17:53,15.08822597,0.0001753,53.2161,232.2013,127.88,232.2351,-0.00040205,-6.678e-05,0.0,0 STARLINK-3670,1 52106U 22029U   23330.88742983 -.00006678  00000-0 -40205-3 0  9992,2 52106  53.2161 232.2013 0001753 127.8800 232.2351 15.08822597 94771,6917.934,95.439,541.011,538.586,0.0
52106.0,STARLINK-3670,PAYLOAD,2023-11-27 00:28:40,15.08821593,0.0001778,53.2158,231.6071,124.8853,235.2306,-0.00038813,-6.457e-05,0.0,0 STARLINK-3670,1 52106U 22029U   23331.01991162 -.00006457  00000-0 -38813-3 0  9990,2 52106  53.2158 231.6071 0001778 124.8853 235.2306 15.08821593 94796,6917.937,95.439,541.032,538.572,0.0
52106.0,STARLINK-3670,PAYLOAD,2023-11-27 16:22:31,15.08830744,0.0001445,53.2151,228.6344,117.9885,242.1254,-8.2678e-05,-1.603e-05,0.0,0 STARLINK-3670,1 52106U 22029U   23331.68231402 -.00001603  00000-0 -82678-4 0  9994,2 52106  53.2151 228.6344 0001445 117.9885 242.1254 15.08830744 94895,6917.909,95.438,540.773,538.774,0.0
52106.0,STARLINK-3670,PAYLOAD,2023-11-27 21:08:41,15.08839983,0.0001399,53.2152,227.7451,116.2456,243.868,-0.00015109,-2.692e-05,0.0,0 STARLINK-3670,1 52106U 22029U   23331.88103184 -.00002692  00000-0 -15109-3 0  9994,2 52106  53.2152 227.7451 0001399 116.2456 243.8680 15.08839983 94928,6917.88,95.438,540.713,538.778,0.0
52106.0,STARLINK-3670,PAYLOAD,2023-11-28 03:30:13,15.0884246,0.0001463,53.2146,226.5529,117.5298,242.5843,0.00018375,2.638e-05,0.0,0 STARLINK-3670,1 52106U 22029U   23332.14598933  .00002638  00000-0  18375-3 0  9990,2 52106  53.2146 226.5529 0001463 117.5298 242.5843 15.08842460 94969,6917.873,95.437,540.75,538.726,0.0
52106.0,STARLINK-3670,PAYLOAD,2023-11-28 22:34:50,15.08854257,0.0002561,53.2146,222.9861,143.6472,216.4694,0.0005297,8.155e-05,0.0,0 STARLINK-3670,1 52106U 22029U   23332.94086785  .00008155  00000-0  52970-3 0  9994,2 52106  53.2146 222.9861 0002561 143.6472 216.4694 15.08854257 95087,6917.837,95.437,541.473,537.93,0.0
52106.0,STARLINK-3670,PAYLOAD,2023-11-29 01:45:37,15.088594,0.000166,53.2144,222.3917,122.8016,237.3136,0.00053923,8.309e-05,0.0,0 STARLINK-3670,1 52106U 22029U   23333.07334608  .00008309  00000-0  53923-3 0  9999,2 52106  53.2144 222.3917 0001660 122.8016 237.3136 15.08859400 95104,6917.821,95.436,540.834,538.538,0.0
52106.0,STARLINK-3670,PAYLOAD,2023-11-30 00:01:01,15.08849816,0.0001386,53.2141,218.2287,112.6756,247.4383,3.9939e-05,3.48e-06,0.0,0 STARLINK-3670,1 52106U 22029U   23334.00070630  .00000348  00000-0  39939-4 0  9992,2 52106  53.2141 218.2287 0001386 112.6756 247.4383 15.08849816 95249,6917.85,95.437,540.674,538.757,0.0
52106.0,STARLINK-3670,PAYLOAD,2023-11-30 23:51:48,15.08845056,0.0001275,53.2139,213.771,109.1016,251.0114,0.00015552,2.188e-05,0.0,0 STARLINK-3670,1 52106U 22029U   23334.99431142  .00002188  00000-0  15552-3 0  9997,2 52106  53.2139 213.7710 0001275 109.1016 251.0114 15.08845056 95395,6917.865,95.437,540.612,538.848,0.0
52106.0,STARLINK-3670,PAYLOAD,2023-12-01 22:07:12,15.08861959,0.00016,53.2147,209.607,113.6693,246.4467,0.00069502,0.00010797,0.0,0 STARLINK-3670,1 52106U 22029U   23335.92167014  .00010797  00000-0  69502-3 0  9994,2 52106  53.2147 209.6070 0001600 113.6693 246.4467 15.08861959 95535,6917.813,95.436,540.785,538.571,0.0
52106.0,STARLINK-3670,PAYLOAD,2023-12-02 01:17:58,15.08869794,0.000145,53.2148,209.0084,97.2197,262.896,0.00076452,0.0001191,0.0,0 STARLINK-3670,1 52106U 22029U   23336.05414571  .00011910  00000-0  76452-3 0  9992,2 52106  53.2148 209.0084 0001450  97.2197 262.8960 15.08869794 95551,6917.789,95.436,540.657,538.651,0.0
52106.0,STARLINK-3670,PAYLOAD,2023-12-02 20:22:36,15.08840651,0.0001297,53.2152,205.4409,86.676,273.4381,5.8747e-05,6.47e-06,0.0,0 STARLINK-3670,1 52106U 22029U   23336.84903387  .00000647  00000-0  58747-4 0  9990,2 52106  53.2152 205.4409 0001297  86.6760 273.4381 15.08840651 95673,6917.878,95.438,540.641,538.846,0.0
